{
    "links": {
        "self": "http://www.neowsapp.com/rest/v1/neo/3601611?api_key=iIulBulltgU6a56xZRHN4H3l9WmuAYTsLGpBGhQ2"
    },
    "id": "3601611",
    "neo_reference_id": "3601611",
    "name": "(2012 FS23)",
    "designation": "2012 FS23",
    "nasa_jpl_url": "http://ssd.jpl.nasa.gov/sbdb.cgi?sstr=3601611",
    "absolute_magnitude_h": 20.8,
    "estimated_diameter": {
        "kilometers": {
            "estimated_diameter_min": 0.1838886721,
            "estimated_diameter_max": 0.411187571
        },
        "meters": {
            "estimated_diameter_min": 183.8886720703,
            "estimated_diameter_max": 411.1875710413
        },
        "miles": {
            "estimated_diameter_min": 0.1142630881,
            "estimated_diameter_max": 0.2555000322
        },
        "feet": {
            "estimated_diameter_min": 603.309310875,
            "estimated_diameter_max": 1349.040630575
        }
    },
    "is_potentially_hazardous_asteroid": false,
    "close_approach_data": [
        {
            "close_approach_date": "2012-03-28",
            "close_approach_date_full": "2012-Mar-28 01:58",
            "epoch_date_close_approach": 1332899880000,
            "relative_velocity": {
                "kilometers_per_second": "24.2723307489",
                "kilometers_per_hour": "87380.3906959993",
                "miles_per_hour": "54294.7766521891"
            },
            "miss_distance": {
                "astronomical": "0.2030275013",
                "lunar": "78.9776980057",
                "kilometers": "30372481.745902231",
                "miles": "18872585.0235075478"
            },
            "orbiting_body": "Earth"
        }
    ],
    "orbital_data": {
        "orbit_id": "10",
        "orbit_determination_date": "2018-02-10 07:05:02",
        "first_observation_date": "2012-03-21",
        "last_observation_date": "2012-03-30",
        "data_arc_in_days": 9,
        "observations_used": 50,
        "orbit_uncertainty": "9",
        "minimum_orbit_intersection": ".178356",
        "jupiter_tisserand_invariant": "4.898",
        "epoch_osculation": "2456010.5",
        "eccentricity": ".6317508681941134",
        "semi_major_axis": "1.207519790237553",
        "inclination": "37.92646170402982",
        "ascending_node_longitude": "354.7637096946507",
        "orbital_period": "484.6629402615797",
        "perihelion_distance": ".4446681143934051",
        "perihelion_argument": "315.6899133382207",
        "aphelion_distance": "1.9703714660817",
        "perihelion_time": "2456080.255048548485",
        "mean_anomaly": "308.1870483765452",
        "mean_motion": ".7427842529195707",
        "equinox": "J2000",
        "orbit_class": {
            "orbit_class_type": "APO",
            "orbit_class_description": "Near-Earth asteroid orbits which cross the Earth’s orbit similar to that of 1862 Apollo",
            "orbit_class_range": "a (semi-major axis) > 1.0 AU; q (perihelion) < 1.017 AU"
        }
    },
    "is_sentry_object": false
}